{
  "type": "FeatureCollection",
  "features": [
    {
      "type": "Feature",
      "properties": {
        "norad_id": 41589,
        "name": "EUTELSAT 117 WEST B (WAAS/PRN 131)",
        "group": "gnss",
        "lat": -0.005983580434260068,
        "lon": -35.204863971456035,
        "alt_km": 35785.181769877556,
        "timestamp": "2025-12-18T23:35:49.301240+00:00",
        "meta_object_name": "EUTELSAT 117 WEST B (WAAS/PRN 131)",
        "meta_object_id": "2016-038B",
        "meta_epoch": "2025-12-18T14:08:49.387200",
        "meta_mean_motion": 1.00271024,
        "meta_eccentricity": 3.208e-05,
        "meta_inclination": 0.043,
        "meta_ra_of_asc_node": 169.4138,
        "meta_arg_of_pericenter": 119.9849,
        "meta_mean_anomaly": 253.2688,
        "meta_ephemeris_type": 0,
        "meta_classification_type": "U",
        "meta_norad_cat_id": 41589,
        "meta_element_set_no": 999,
        "meta_rev_at_epoch": 3485,
        "meta_bstar": 0,
        "meta_mean_motion_dot": 1.4e-07,
        "meta_mean_motion_ddot": 0,
        "tle_line1": "1 41589U 16038B   25352.58946050  .00000014  00000+0  00000+0 0  9992",
        "tle_line2": "2 41589   0.0430 169.4138 0000320 119.9849 253.2688  1.00271024 34855"
      },
      "geometry": {
        "type": "Point",
        "coordinates": [
          -35.204863971456035,
          -0.005983580434260068
        ]
      }
    },
    {
      "type": "Feature",
      "properties": {
        "norad_id": 41859,
        "name": "GSAT0207 (GALILEO 15)",
        "group": "gnss",
        "lat": -12.910164008958708,
        "lon": -64.83498567431963,
        "alt_km": 23227.97034810816,
        "timestamp": "2025-12-18T23:35:49.301259+00:00",
        "meta_object_name": "GSAT0207 (GALILEO 15)",
        "meta_object_id": "2016-069A",
        "meta_epoch": "2025-12-13T09:14:27.730752",
        "meta_mean_motion": 1.70474447,
        "meta_eccentricity": 0.00022423,
        "meta_inclination": 55.3826,
        "meta_ra_of_asc_node": 106.2323,
        "meta_arg_of_pericenter": 321.9482,
        "meta_mean_anomaly": 38.0041,
        "meta_ephemeris_type": 0,
        "meta_classification_type": "U",
        "meta_norad_cat_id": 41859,
        "meta_element_set_no": 999,
        "meta_rev_at_epoch": 5623,
        "meta_bstar": 0,
        "meta_mean_motion_dot": 0,
        "meta_mean_motion_ddot": 0,
        "tle_line1": "1 41859U 16069A   25347.38504318  .00000000  00000+0  00000+0 0  9990",
        "tle_line2": "2 41859  55.3826 106.2323 0002242 321.9482  38.0041  1.70474447 56234"
      },
      "geometry": {
        "type": "Point",
        "coordinates": [
          -64.83498567431963,
          -12.910164008958708
        ]
      }
    },
    {
      "type": "Feature",
      "properties": {
        "norad_id": 41860,
        "name": "GSAT0212 (GALILEO 16)",
        "group": "gnss",
        "lat": -52.463709361648654,
        "lon": 42.18243580404978,
        "alt_km": 23228.484095586242,
        "timestamp": "2025-12-18T23:35:49.301280+00:00",
        "meta_object_name": "GSAT0212 (GALILEO 16)",
        "meta_object_id": "2016-069B",
        "meta_epoch": "2025-12-18T12:25:48.697536",
        "meta_mean_motion": 1.70474692,
        "meta_eccentricity": 0.00020646,
        "meta_inclination": 55.3831,
        "meta_ra_of_asc_node": 106.0857,
        "meta_arg_of_pericenter": 21.766,
        "meta_mean_anomaly": 338.2025,
        "meta_ephemeris_type": 0,
        "meta_classification_type": "U",
        "meta_norad_cat_id": 41860,
        "meta_element_set_no": 999,
        "meta_rev_at_epoch": 5657,
        "meta_bstar": 0,
        "meta_mean_motion_dot": -8e-08,
        "meta_mean_motion_ddot": 0,
        "tle_line1": "1 41860U 16069B   25352.51792474 -.00000008  00000+0  00000+0 0  9994",
        "tle_line2": "2 41860  55.3831 106.0857 0002064  21.7660 338.2025  1.70474692 56573"
      },
      "geometry": {
        "type": "Point",
        "coordinates": [
          42.18243580404978,
          -52.463709361648654
        ]
      }
    },
    {
      "type": "Feature",
      "properties": {
        "norad_id": 41861,
        "name": "GSAT0213 (GALILEO 17)",
        "group": "gnss",
        "lat": 45.46019421725055,
        "lon": 150.5766573324036,
        "alt_km": 23222.299275750443,
        "timestamp": "2025-12-18T23:35:49.301298+00:00",
        "meta_object_name": "GSAT0213 (GALILEO 17)",
        "meta_object_id": "2016-069C",
        "meta_epoch": "2025-12-17T17:05:43.699776",
        "meta_mean_motion": 1.70474994,
        "meta_eccentricity": 0.000259,
        "meta_inclination": 55.385,
        "meta_ra_of_asc_node": 106.1156,
        "meta_arg_of_pericenter": 282.1972,
        "meta_mean_anomaly": 77.7328,
        "meta_ephemeris_type": 0,
        "meta_classification_type": "U",
        "meta_norad_cat_id": 41861,
        "meta_element_set_no": 999,
        "meta_rev_at_epoch": 5642,
        "meta_bstar": 0,
        "meta_mean_motion_dot": -9e-08,
        "meta_mean_motion_ddot": 0,
        "tle_line1": "1 41861U 16069C   25351.71231134 -.00000009  00000+0  00000+0 0  9998",
        "tle_line2": "2 41861  55.3850 106.1156 0002590 282.1972  77.7328  1.70474994 56421"
      },
      "geometry": {
        "type": "Point",
        "coordinates": [
          150.5766573324036,
          45.46019421725055
        ]
      }
    },
    {
      "type": "Feature",
      "properties": {
        "norad_id": 41862,
        "name": "GSAT0214 (GALILEO 18)",
        "group": "gnss",
        "lat": -24.012611780441965,
        "lon": 88.1652937106667,
        "alt_km": 23221.84255424932,
        "timestamp": "2025-12-18T23:35:49.301315+00:00",
        "meta_object_name": "GSAT0214 (GALILEO 18)",
        "meta_object_id": "2016-069D",
        "meta_epoch": "2025-12-17T20:35:58.649280",
        "meta_mean_motion": 1.70474854,
        "meta_eccentricity": 0.00015422,
        "meta_inclination": 55.383,
        "meta_ra_of_asc_node": 106.1044,
        "meta_arg_of_pericenter": 289.1766,
        "meta_mean_anomaly": 70.7658,
        "meta_ephemeris_type": 0,
        "meta_classification_type": "U",
        "meta_norad_cat_id": 41862,
        "meta_element_set_no": 999,
        "meta_rev_at_epoch": 5655,
        "meta_bstar": 0,
        "meta_mean_motion_dot": -9e-08,
        "meta_mean_motion_ddot": 0,
        "tle_line1": "1 41862U 16069D   25351.85831770 -.00000009  00000+0  00000+0 0  9996",
        "tle_line2": "2 41862  55.3830 106.1044 0001542 289.1766  70.7658  1.70474854 56558"
      },
      "geometry": {
        "type": "Point",
        "coordinates": [
          88.1652937106667,
          -24.012611780441965
        ]
      }
    },
    {
      "type": "Feature",
      "properties": {
        "norad_id": 42709,
        "name": "SES-15 (WAAS/PRN 133)",
        "group": "gnss",
        "lat": -0.02508761995934795,
        "lon": -47.38027894195558,
        "alt_km": 35788.140046259374,
        "timestamp": "2025-12-18T23:35:49.301333+00:00",
        "meta_object_name": "SES-15 (WAAS/PRN 133)",
        "meta_object_id": "2017-026A",
        "meta_epoch": "2025-12-18T14:23:35.367360",
        "meta_mean_motion": 1.00271967,
        "meta_eccentricity": 7.217e-05,
        "meta_inclination": 0.0179,
        "meta_ra_of_asc_node": 345.1001,
        "meta_arg_of_pericenter": 192.5534,
        "meta_mean_anomaly": 356.5354,
        "meta_ephemeris_type": 0,
        "meta_classification_type": "U",
        "meta_norad_cat_id": 42709,
        "meta_element_set_no": 999,
        "meta_rev_at_epoch": 562,
        "meta_bstar": 0,
        "meta_mean_motion_dot": 8.5e-07,
        "meta_mean_motion_ddot": 0,
        "tle_line1": "1 42709U 17026A   25352.59971490  .00000085  00000+0  00000+0 0  9990",
        "tle_line2": "2 42709   0.0179 345.1001 0000721 192.5534 356.5354  1.00271967  5621"
      },
      "geometry": {
        "type": "Point",
        "coordinates": [
          -47.38027894195558,
          -0.02508761995934795
        ]
      }
    },
    {
      "type": "Feature",
      "properties": {
        "norad_id": 42738,
        "name": "QZS-2 (QZSS/PRN 194)",
        "group": "gnss",
        "lat": -8.783022362548326,
        "lon": -124.88911855706606,
        "alt_km": 34830.24526296928,
        "timestamp": "2025-12-18T23:35:49.301351+00:00",
        "meta_object_name": "QZS-2 (QZSS/PRN 194)",
        "meta_object_id": "2017-028A",
        "meta_epoch": "2025-12-18T13:55:30.556128",
        "meta_mean_motion": 1.00281517,
        "meta_eccentricity": 0.07566042,
        "meta_inclination": 39.7045,
        "meta_ra_of_asc_node": 245.7969,
        "meta_arg_of_pericenter": 269.5406,
        "meta_mean_anomaly": 282.9842,
        "meta_ephemeris_type": 0,
        "meta_classification_type": "U",
        "meta_norad_cat_id": 42738,
        "meta_element_set_no": 999,
        "meta_rev_at_epoch": 581,
        "meta_bstar": 0,
        "meta_mean_motion_dot": -1.25e-06,
        "meta_mean_motion_ddot": 0,
        "tle_line1": "1 42738U 17028A   25352.58021477 -.00000125  00000+0  00000+0 0  9990",
        "tle_line2": "2 42738  39.7045 245.7969 0756604 269.5406 282.9842  1.00281517  5810"
      },
      "geometry": {
        "type": "Point",
        "coordinates": [
          -124.88911855706606,
          -8.783022362548326
        ]
      }
    }
  ]
}